{
  "type": "FeatureCollection",
  "features": [
    {
      "type": "Feature",
      "properties": {
        "norad_id": 37238,
        "name": "INTELSAT 17 (IS-17)",
        "group": "intelsat",
        "lat": -0.0005427833484911992,
        "lon": -46.424275062556156,
        "alt_km": 35781.098201900255,
        "timestamp": "2025-12-06T11:28:10.697006+00:00",
        "meta_object_name": "INTELSAT 17 (IS-17)",
        "meta_object_id": "2010-065B",
        "meta_epoch": "2025-12-05T21:34:38.508384",
        "meta_mean_motion": 1.00271589,
        "meta_eccentricity": 0.00024632,
        "meta_inclination": 0.0102,
        "meta_ra_of_asc_node": 297.9189,
        "meta_arg_of_pericenter": 314.2971,
        "meta_mean_anomaly": 212.3925,
        "meta_ephemeris_type": 0,
        "meta_classification_type": "U",
        "meta_norad_cat_id": 37238,
        "meta_element_set_no": 999,
        "meta_rev_at_epoch": 5131,
        "meta_bstar": 0,
        "meta_mean_motion_dot": 8e-08,
        "meta_mean_motion_ddot": 0,
        "tle_line1": "1 37238U 10065B   25339.89905681  .00000008  00000+0  00000+0 0  9999",
        "tle_line2": "2 37238   0.0102 297.9189 0002463 314.2971 212.3925  1.00271589 51312"
      },
      "geometry": {
        "type": "Point",
        "coordinates": [
          -46.424275062556156,
          -0.0005427833484911992
        ]
      }
    },
    {
      "type": "Feature",
      "properties": {
        "norad_id": 37392,
        "name": "INTELSAT 28 (IS-28)",
        "group": "intelsat",
        "lat": 0.9686959695761879,
        "lon": -144.18083687025677,
        "alt_km": 35773.880117880915,
        "timestamp": "2025-12-06T11:28:10.697017+00:00",
        "meta_object_name": "INTELSAT 28 (IS-28)",
        "meta_object_id": "2011-016A",
        "meta_epoch": "2025-12-05T22:06:23.434848",
        "meta_mean_motion": 1.00270692,
        "meta_eccentricity": 0.00041694,
        "meta_inclination": 1.306,
        "meta_ra_of_asc_node": 85.1394,
        "meta_arg_of_pericenter": 176.0351,
        "meta_mean_anomaly": 113.6875,
        "meta_ephemeris_type": 0,
        "meta_classification_type": "U",
        "meta_norad_cat_id": 37392,
        "meta_element_set_no": 999,
        "meta_rev_at_epoch": 5134,
        "meta_bstar": 0,
        "meta_mean_motion_dot": -2.16e-06,
        "meta_mean_motion_ddot": 0,
        "tle_line1": "1 37392U 11016A   25339.92110457 -.00000216  00000+0  00000+0 0  9992",
        "tle_line2": "2 37392   1.3060  85.1394 0004169 176.0351 113.6875  1.00270692 51340"
      },
      "geometry": {
        "type": "Point",
        "coordinates": [
          -144.18083687025677,
          0.9686959695761879
        ]
      }
    },
    {
      "type": "Feature",
      "properties": {
        "norad_id": 37834,
        "name": "INTELSAT 18 (IS-18)",
        "group": "intelsat",
        "lat": 0.03612531289413099,
        "lon": 67.55345376277704,
        "alt_km": 35795.00201511615,
        "timestamp": "2025-12-06T11:28:10.697029+00:00",
        "meta_object_name": "INTELSAT 18 (IS-18)",
        "meta_object_id": "2011-056A",
        "meta_epoch": "2025-12-05T18:50:38.529024",
        "meta_mean_motion": 1.00271406,
        "meta_eccentricity": 0.00021367,
        "meta_inclination": 0.0143,
        "meta_ra_of_asc_node": 313.4239,
        "meta_arg_of_pericenter": 305.6778,
        "meta_mean_anomaly": 278.3927,
        "meta_ephemeris_type": 0,
        "meta_classification_type": "U",
        "meta_norad_cat_id": 37834,
        "meta_element_set_no": 999,
        "meta_rev_at_epoch": 5187,
        "meta_bstar": 0,
        "meta_mean_motion_dot": 6.3e-07,
        "meta_mean_motion_ddot": 0,
        "tle_line1": "1 37834U 11056A   25339.78516816  .00000063  00000+0  00000+0 0  9999",
        "tle_line2": "2 37834   0.0143 313.4239 0002136 305.6778 278.3927  1.00271406 51878"
      },
      "geometry": {
        "type": "Point",
        "coordinates": [
          67.55345376277704,
          0.03612531289413099
        ]
      }
    },
    {
      "type": "Feature",
      "properties": {
        "norad_id": 38098,
        "name": "INTELSAT 22 (IS-22)",
        "group": "intelsat",
        "lat": -0.013586372971857833,
        "lon": -40.326858493336374,
        "alt_km": 35781.6199966049,
        "timestamp": "2025-12-06T11:28:10.697041+00:00",
        "meta_object_name": "INTELSAT 22 (IS-22)",
        "meta_object_id": "2012-011A",
        "meta_epoch": "2025-12-05T21:26:26.562336",
        "meta_mean_motion": 1.00271034,
        "meta_eccentricity": 0.00017858,
        "meta_inclination": 0.0091,
        "meta_ra_of_asc_node": 42.0366,
        "meta_arg_of_pericenter": 225.8534,
        "meta_mean_anomaly": 200.7704,
        "meta_ephemeris_type": 0,
        "meta_classification_type": "U",
        "meta_norad_cat_id": 38098,
        "meta_element_set_no": 999,
        "meta_rev_at_epoch": 525,
        "meta_bstar": 0,
        "meta_mean_motion_dot": -4.9e-07,
        "meta_mean_motion_ddot": 0,
        "tle_line1": "1 38098U 12011A   25339.89336299 -.00000049  00000+0  00000+0 0  9996",
        "tle_line2": "2 38098   0.0091  42.0366 0001785 225.8534 200.7704  1.00271034  5251"
      },
      "geometry": {
        "type": "Point",
        "coordinates": [
          -40.326858493336374,
          -0.013586372971857833
        ]
      }
    },
    {
      "type": "Feature",
      "properties": {
        "norad_id": 38356,
        "name": "INTELSAT 19 (IS-19)",
        "group": "intelsat",
        "lat": 0.03469029885707611,
        "lon": 53.5721238443878,
        "alt_km": 35799.841868666364,
        "timestamp": "2025-12-06T11:28:10.697054+00:00",
        "meta_object_name": "INTELSAT 19 (IS-19)",
        "meta_object_id": "2012-030A",
        "meta_epoch": "2025-12-05T19:06:38.655072",
        "meta_mean_motion": 1.00270157,
        "meta_eccentricity": 0.00035224,
        "meta_inclination": 0.011,
        "meta_ra_of_asc_node": 345.0794,
        "meta_arg_of_pericenter": 275.3724,
        "meta_mean_anomaly": 267.0626,
        "meta_ephemeris_type": 0,
        "meta_classification_type": "U",
        "meta_norad_cat_id": 38356,
        "meta_element_set_no": 999,
        "meta_rev_at_epoch": 4851,
        "meta_bstar": 0,
        "meta_mean_motion_dot": -4.7e-07,
        "meta_mean_motion_ddot": 0,
        "tle_line1": "1 38356U 12030A   25339.79628073 -.00000047  00000+0  00000+0 0  9995",
        "tle_line2": "2 38356   0.0110 345.0794 0003522 275.3724 267.0626  1.00270157 48513"
      },
      "geometry": {
        "type": "Point",
        "coordinates": [
          53.5721238443878,
          0.03469029885707611
        ]
      }
    },
    {
      "type": "Feature",
      "properties": {
        "norad_id": 38740,
        "name": "INTELSAT 20 (IS-20)",
        "group": "intelsat",
        "lat": -0.02226673010803099,
        "lon": -43.93031382337838,
        "alt_km": 35794.34359769146,
        "timestamp": "2025-12-06T11:28:10.697066+00:00",
        "meta_object_name": "INTELSAT 20 (IS-20)",
        "meta_object_id": "2012-043A",
        "meta_epoch": "2025-12-05T21:26:38.561568",
        "meta_mean_motion": 1.00269948,
        "meta_eccentricity": 0.00031687,
        "meta_inclination": 0.0144,
        "meta_ra_of_asc_node": 8.3113,
        "meta_arg_of_pericenter": 181.8288,
        "meta_mean_anomaly": 274.956,
        "meta_ephemeris_type": 0,
        "meta_classification_type": "U",
        "meta_norad_cat_id": 38740,
        "meta_element_set_no": 999,
        "meta_rev_at_epoch": 4881,
        "meta_bstar": 0,
        "meta_mean_motion_dot": 0,
        "meta_mean_motion_ddot": 0,
        "tle_line1": "1 38740U 12043A   25339.89350187  .00000000  00000+0  00000+0 0  9993",
        "tle_line2": "2 38740   0.0144   8.3113 0003168 181.8288 274.9560  1.00269948 48816"
      },
      "geometry": {
        "type": "Point",
        "coordinates": [
          -43.93031382337838,
          -0.02226673010803099
        ]
      }
    },
    {
      "type": "Feature",
      "properties": {
        "norad_id": 38749,
        "name": "INTELSAT 21 (IS-21)",
        "group": "intelsat",
        "lat": -0.025709769190130335,
        "lon": -170.4678804003595,
        "alt_km": 35781.447851281206,
        "timestamp": "2025-12-06T11:28:10.697077+00:00",
        "meta_object_name": "INTELSAT 21 (IS-21)",
        "meta_object_id": "2012-045A",
        "meta_epoch": "2025-12-05T21:58:54.153120",
        "meta_mean_motion": 1.00271371,
        "meta_eccentricity": 0.00022706,
        "meta_inclination": 0.0169,
        "meta_ra_of_asc_node": 331.0459,
        "meta_arg_of_pericenter": 278.3642,
        "meta_mean_anomaly": 97.2849,
        "meta_ephemeris_type": 0,
        "meta_classification_type": "U",
        "meta_norad_cat_id": 38749,
        "meta_element_set_no": 999,
        "meta_rev_at_epoch": 4858,
        "meta_bstar": 0,
        "meta_mean_motion_dot": -2.76e-06,
        "meta_mean_motion_ddot": 0,
        "tle_line1": "1 38749U 12045A   25339.91590455 -.00000276  00000+0  00000+0 0  9997",
        "tle_line2": "2 38749   0.0169 331.0459 0002270 278.3642  97.2849  1.00271371 48583"
      },
      "geometry": {
        "type": "Point",
        "coordinates": [
          -170.4678804003595,
          -0.025709769190130335
        ]
      }
    }
  ]
}